天気概況 2022年11月ZO日O7UTC,コメント 2022年11月ZO日O7UTC,METAR,TAF
】気圧の谷や湿った空気の影響で雲が広がり雨の降る所がある見込み。,雨の降る時間帯があるが 期間中VMCで推移する見込み。,"METAR RJFU 200800Z 36011KT 9999 FEW030 SCT090 BKN130 19/13 Q1015 RMK
           1CU030 4AC090 6AC130 A2999=",TAF RJFU 200505Z 2006/2112 35012KT 9999 FEW030=
